$$SOE
2460721.500000000, A.D. 2025-Feb-15 00:00:00.0000, -2.886530290719391E+08, -1.405419661902645E+08, -1.025796013593021E+07,
2460728.500000000, A.D. 2025-Feb-22 00:00:00.0000, -2.835266091189640E+08, -1.502085655248549E+08, -1.440424119578661E+07,
2460735.500000000, A.D. 2025-Mar-01 00:00:00.0000, -2.779847959736430E+08, -1.596551463197982E+08, -1.852941809631170E+07,
2460742.500000000, A.D. 2025-Mar-08 00:00:00.0000, -2.720354175541385E+08, -1.688677016008070E+08, -2.262742766785728E+07,
2460749.500000000, A.D. 2025-Mar-15 00:00:00.0000, -2.656867454437201E+08, -1.778324440995099E+08, -2.669222429559161E+07,
2460756.500000000, A.D. 2025-Mar-22 00:00:00.0000, -2.589474975175864E+08, -1.865358103538443E+08, -3.071778122017055E+07,
2460763.500000000, A.D. 2025-Mar-29 00:00:00.0000, -2.518268398681592E+08, -1.949644676536895E+08, -3.469809226320837E+07,
2460770.500000000, A.D. 2025-Apr-05 00:00:00.0000, -2.443343876716327E+08, -2.031053207580270E+08, -3.862717378236924E+07,
2460777.500000000, A.D. 2025-Apr-12 00:00:00.0000, -2.364802068837013E+08, -2.109455183357867E+08, -4.249906670188247E+07,
2460784.500000000, A.D. 2025-Apr-19 00:00:00.0000, -2.282748169040620E+08, -2.184724600615799E+08, -4.630783870209502E+07,
2460791.500000000, A.D. 2025-Apr-26 00:00:00.0000, -2.197291938799094E+08, -2.256738046189609E+08, -5.004758663555925E+07,
2460798.500000000, A.D. 2025-May-03 00:00:00.0000, -2.108547744692113E+08, -2.325374786475177E+08, -5.371243920308627E+07,
2460805.500000000, A.D. 2025-May-10 00:00:00.0000, -2.016634599670779E+08, -2.390516866888578E+08, -5.729655991758956E+07,
2460812.500000000, A.D. 2025-May-17 00:00:00.0000, -1.921676206916524E+08, -2.452049222417319E+08, -6.079415039176370E+07,
2460819.500000000, A.D. 2025-May-24 00:00:00.0000, -1.823801003889107E+08, -2.509859800496385E+08, -6.419945400198106E+07,
2460826.500000000, A.D. 2025-May-31 00:00:00.0000, -1.723142201669719E+08, -2.563839693755601E+08, -6.750675997419120E+07,
2460833.500000000, A.D. 2025-Jun-07 00:00:00.0000, -1.619837822808000E+08, -2.613883271216904E+08, -7.071040779007186E+07,
2460840.500000000, A.D. 2025-Jun-14 00:00:00.0000, -1.514030760421084E+08, -2.659888315209465E+08, -7.380479178559214E+07,
2460847.500000000, A.D. 2025-Jun-21 00:00:00.0000, -1.405868845395168E+08, -2.701756197310962E+08, -7.678436635755268E+07,
2460854.500000000, A.D. 2025-Jun-28 00:00:00.0000, -1.295504889367475E+08, -2.739392076255445E+08, -7.964365195928031E+07,
2460861.500000000, A.D. 2025-Jul-05 00:00:00.0000, -1.183096717529861E+08, -2.772705096770993E+08, -8.237724160761878E+07,
2460868.500000000, A.D. 2025-Jul-12 00:00:00.0000, -1.068807201918451E+08, -2.801608597860344E+08, -8.497980789309289E+07,
2460875.500000000, A.D. 2025-Jul-19 00:00:00.0000, -9.528042919245361E+07, -2.826020336677415E+08, -8.744611059095351E+07,
2460882.500000000, A.D. 2025-Jul-26 00:00:00.0000, -8.352610384232166E+07, -2.845862728911282E+08, -8.977100492862961E+07,
2460889.500000000, A.D. 2025-Aug-02 00:00:00.0000, -7.163556092237896E+07, -2.861063105764324E+08, -9.194945054544239E+07,
2460896.500000000, A.D. 2025-Aug-09 00:00:00.0000, -5.962712938535268E+07, -2.871553987925911E+08, -9.397652118055214E+07,
2460903.500000000, A.D. 2025-Aug-16 00:00:00.0000, -4.751964950502830E+07, -2.877273377336801E+08, -9.584741513312425E+07,
2460910.500000000, A.D. 2025-Aug-23 00:00:00.0000, -3.533247020596286E+07, -2.878165066612518E+08, -9.755746654888208E+07,
2460917.500000000, A.D. 2025-Aug-30 00:00:00.0000, -2.308544403309964E+07, -2.874178958874431E+08, -9.910215752984193E+07,
2460924.500000000, A.D. 2025-Sep-06 00:00:00.0000, -1.079892095420017E+07, -2.865271387706519E+08, -1.004771308758328E+08,
2460931.500000000, A.D. 2025-Sep-13 00:00:00.0000, 1.506257573828875E+06, -2.851405461586787E+08, -1.016782035221652E+08,
2460938.500000000, A.D. 2025-Sep-20 00:00:00.0000, 1.380876780205483E+07, -2.832551448573372E+08, -1.027013811185098E+08,
2460945.500000000, A.D. 2025-Sep-27 00:00:00.0000, 2.608681747307496E+07, -2.808687169276509E+08, -1.035428735981144E+08,
2460952.500000000, A.D. 2025-Oct-04 00:00:00.0000, 3.831816244736679E+07, -2.779798391607530E+08, -1.041991115066802E+08,
2460959.500000000, A.D. 2025-Oct-11 00:00:00.0000, 5.048012608062806E+07, -2.745879235315371E+08, -1.046667631222586E+08,
2460966.500000000, A.D. 2025-Oct-18 00:00:00.0000, 6.254962192408275E+07, -2.706932587318107E+08, -1.049427523927859E+08,
2460973.500000000, A.D. 2025-Oct-25 00:00:00.0000, 7.450318017836776E+07, -2.662970525633739E+08, -1.050242776689750E+08,
2460980.500000000, A.D. 2025-Nov-01 00:00:00.0000, 8.631697823170638E+07, -2.614014749276089E+08, -1.049088311858971E+08,
2460987.500000000, A.D. 2025-Nov-08 00:00:00.0000, 9.796687560719618E+07, -2.560097011535735E+08, -1.045942192350418E+08,
2460994.500000000, A.D. 2025-Nov-15 00:00:00.0000, 1.094284537516731E+08, -2.501259553940869E+08, -1.040785829681850E+08,
2461001.500000000, A.D. 2025-Nov-22 00:00:00.0000, 1.206770613379740E+08, -2.437555535006225E+08, -1.033604197599930E+08,
2461008.500000000, A.D. 2025-Nov-29 00:00:00.0000, 1.316878651730229E+08, -2.369049438276013E+08, -1.024386049102613E+08,
2461015.500000000, A.D. 2025-Dec-06 00:00:00.0000, 1.424359046509767E+08, -2.295817456370966E+08, -1.013124133519763E+08,
2461022.500000000, A.D. 2025-Dec-13 00:00:00.0000, 1.528961503676668E+08, -2.217947879566779E+08, -9.998154152023786E+07,
2461029.500000000, A.D. 2025-Dec-20 00:00:00.0000, 1.630435705327706E+08, -2.135541473037219E+08, -9.844612943829876E+07,
2461036.500000000, A.D. 2025-Dec-27 00:00:00.0000, 1.728532041984632E+08, -2.048711810820508E+08, -9.670678251049647E+07,
2461043.500000000, A.D. 2026-Jan-03 00:00:00.0000, 1.823002398749425E+08, -1.957585566236763E+08, -9.476459271600769E+07,
2461050.500000000, A.D. 2026-Jan-10 00:00:00.0000, 1.913600996005561E+08, -1.862302758751835E+08, -9.262115902383596E+07,
2461057.500000000, A.D. 2026-Jan-17 00:00:00.0000, 2.000085285759789E+08, -1.763016951130475E+08, -9.027860679173648E+07,
2461064.500000000, A.D. 2026-Jan-24 00:00:00.0000, 2.082216902243699E+08, -1.659895389404392E+08, -8.773960586749345E+07,
2461071.500000000, A.D. 2026-Jan-31 00:00:00.0000, 2.159762663779871E+08, -1.553119078397590E+08, -8.500738708537787E+07,
2461078.500000000, A.D. 2026-Feb-07 00:00:00.0000, 2.232495622102117E+08, -1.442882785997228E+08, -8.208575683236007E+07,
2461085.500000000, A.D. 2026-Feb-14 00:00:00.0000, 2.300196156052308E+08, -1.329394968884378E+08, -7.897910935416660E+07,
2461092.500000000, A.D. 2026-Feb-21 00:00:00.0000, 2.362653106914388E+08, -1.212877606687233E+08, -7.569243644110776E+07,
2461099.500000000, A.D. 2026-Feb-28 00:00:00.0000, 2.419664936910196E+08, -1.093565926405469E+08, -7.223133397454937E+07,
2461106.500000000, A.D. 2026-Mar-07 00:00:00.0000, 2.471040881367498E+08, -9.717080308869515E+07, -6.860200499215618E+07,
2461113.500000000, A.D. 2026-Mar-14 00:00:00.0000, 2.516602112047314E+08, -8.475644498494083E+07, -6.481125940830637E+07,
2461120.500000000, A.D. 2026-Mar-21 00:00:00.0000, 2.556182918011402E+08, -7.214075806395504E+07, -6.086651002101966E+07,
2461127.500000000, A.D. 2026-Mar-28 00:00:00.0000, 2.589631871475540E+08, -5.935210058432972E+07, -5.677576426884378E+07,
2461134.500000000, A.D. 2026-Apr-04 00:00:00.0000, 2.616812959265312E+08, -4.641986962060359E+07, -5.254761153105555E+07,
2461141.500000000, A.D. 2026-Apr-11 00:00:00.0000, 2.637606668578258E+08, -3.337441028455266E+07, -4.819120584429330E+07,
2461148.500000000, A.D. 2026-Apr-18 00:00:00.0000, 2.651911014162074E+08, -2.024691409582116E+07, -4.371624392735365E+07,
2461155.500000000, A.D. 2026-Apr-25 00:00:00.0000, 2.659642492707431E+08, -7.069306888244294E+06, -3.913293845901433E+07,
2461162.500000000, A.D. 2026-May-02 00:00:00.0000, 2.660736950233179E+08, 6.125873121717686E+06, -3.445198662704544E+07,
2461169.500000000, A.D. 2026-May-09 00:00:00.0000, 2.655150349630325E+08, 1.930560624010935E+07, -2.968453405306484E+07,
2461176.500000000, A.D. 2026-May-16 00:00:00.0000, 2.642859428739150E+08, 3.243653031266600E+07, -2.484213427983781E+07,
2461183.500000000, A.D. 2026-May-23 00:00:00.0000, 2.623862236978522E+08, 4.548508769838306E+07, -1.993670398098002E+07,
2461190.500000000, A.D. 2026-May-30 00:00:00.0000, 2.598178518823493E+08, 5.841767918679754E+07, -1.498047399708314E+07,
2461197.500000000, A.D. 2026-Jun-06 00:00:00.0000, 2.565849931928674E+08, 7.120082008697054E+07, -9.985936840595663E+06,
2461204.500000000, A.D. 2026-Jun-13 00:00:00.0000, 2.526940129242800E+08, 8.380129705973737E+07, -4.965791470239483E+06,
2461211.500000000, A.D. 2026-Jun-20 00:00:00.0000, 2.481534695052423E+08, 9.618632691448255E+07, 6.711439608912170E+04,
2461218.500000000, A.D. 2026-Jun-27 00:00:00.0000, 2.429740915618072E+08, 1.083237152667122E+08, 5.099843944937244E+06,
2461225.500000000, A.D. 2026-Jul-04 00:00:00.0000, 2.371687384736146E+08, 1.201820124878872E+08, 1.011943219323692E+07,
2461232.500000000, A.D. 2026-Jul-11 00:00:00.0000, 2.307523449707812E+08, 1.317306650342668E+08, 1.511294747032301E+07,
2461239.500000000, A.D. 2026-Jul-18 00:00:00.0000, 2.237418504112852E+08, 1.429401604552676E+08, 2.006755276764508E+07,
2461246.500000000, A.D. 2026-Jul-25 00:00:00.0000, 2.161561135533278E+08, 1.537821644561292E+08, 2.497056627304228E+07,
2461253.500000000, A.D. 2026-Aug-01 00:00:00.0000, 2.080158138893765E+08, 1.642296484732967E+08, 2.980952041366255E+07,
2461260.500000000, A.D. 2026-Aug-08 00:00:00.0000, 1.993433409845576E+08, 1.742570064005193E+08, 3.457221874566530E+07,
2461267.500000000, A.D. 2026-Aug-15 00:00:00.0000, 1.901626736473019E+08, 1.838401597796836E+08, 3.924679009272258E+07,
2461274.500000000, A.D. 2026-Aug-22 00:00:00.0000, 1.804992497215058E+08, 1.929566517365089E+08, 4.382173955576950E+07,
2461281.500000000, A.D. 2026-Aug-29 00:00:00.0000, 1.703798258457799E+08, 2.015857275820884E+08, 4.828599600797334E+07,
$$EOE